NORAD_CAT_ID,OBJECT_NAME,OBJECT_TYPE,EPOCH,MEAN_MOTION,ECCENTRICITY,INCLINATION,RA_OF_ASC_NODE,ARG_OF_PERICENTER,MEAN_ANOMALY,BSTAR,MEAN_MOTION_DOT,MEAN_MOTION_DDOT,TLE_LINE0,TLE_LINE1,TLE_LINE2,SEMIMAJOR_AXIS,PERIOD,APOGEE,PERIGEE,DECAYED
52556.0,STARLINK-3763,PAYLOAD,2023-03-06 20:33:38,15.13941255,0.0002121,53.2182,25.0149,119.4075,240.7131,0.0022846,0.00041832,0.0,0 STARLINK-3763,1 52556U 22051Z   23065.85670129  .00041832  00000-0  22846-2 0  9999,2 52556  53.2182  25.0149 0002121 119.4075 240.7131 15.13941255 45519,6902.332,95.116,525.661,522.733,0.0
52556.0,STARLINK-3763,PAYLOAD,2023-03-07 09:14:08,15.13996351,0.0002017,53.218,22.6248,120.201,239.9184,0.0027813,0.00051138,0.0,0 STARLINK-3763,1 52556U 22051Z   23066.38482492  .00051138  00000-0  27813-2 0  9991,2 52556  53.2180  22.6248 0002017 120.2010 239.9184 15.13996351 45664,6902.164,95.113,525.421,522.637,0.0
52556.0,STARLINK-3763,PAYLOAD,2023-03-08 05:49:53,15.14084862,0.0002009,53.2179,18.7416,123.9483,236.1702,0.0025932,0.00047756,0.0,0 STARLINK-3763,1 52556U 22051Z   23067.24298222  .00047756  00000-0  25932-2 0  9994,2 52556  53.2179  18.7416 0002009 123.9483 236.1702 15.14084862 45728,6901.895,95.107,525.147,522.374,0.0
52556.0,STARLINK-3763,PAYLOAD,2023-03-09 04:00:36,15.14197957,0.0002068,53.2178,14.5594,130.6754,229.4421,0.0031828,0.00058963,0.0,0 STARLINK-3763,1 52556U 22051Z   23068.16708981  .00058963  00000-0  31828-2 0  9997,2 52556  53.2178  14.5594 0002068 130.6754 229.4421 15.14197957 45935,6901.552,95.1,524.844,521.989,0.0
52556.0,STARLINK-3763,PAYLOAD,2023-03-10 03:46:15,15.14336468,0.0002034,53.2182,10.0784,131.0474,229.0697,0.0036717,0.00068424,0.0,0 STARLINK-3763,1 52556U 22051Z   23069.15712492  .00068424  00000-0  36717-2 0  9994,2 52556  53.2182  10.0784 0002034 131.0474 229.0697 15.14336468 46089,6901.131,95.091,524.399,521.592,0.0
52556.0,STARLINK-3763,PAYLOAD,2023-03-10 13:16:29,15.14385096,0.0002042,53.2181,8.2866,132.192,227.9248,0.0029629,0.0005513,0.0,0 STARLINK-3763,1 52556U 22051Z   23069.55311359  .00055130  00000-0  29629-2 0  9999,2 52556  53.2181   8.2866 0002042 132.1920 227.9248 15.14385096 46074,6900.983,95.088,524.257,521.439,0.0
52556.0,STARLINK-3763,PAYLOAD,2023-03-11 05:06:48,15.14471752,0.0002089,53.2177,5.2973,138.3215,221.7939,0.0034971,0.00065378,0.0,0 STARLINK-3763,1 52556U 22051Z   23070.21306625  .00065378  00000-0  34971-2 0  9995,2 52556  53.2177   5.2973 0002089 138.3215 221.7939 15.14471752 46244,6900.72,95.083,524.026,521.143,0.0
52556.0,STARLINK-3763,PAYLOAD,2023-03-12 04:52:13,15.14587463,0.0002089,53.2178,0.8146,142.4759,217.6382,0.0032567,0.00061025,0.0,0 STARLINK-3763,1 52556U 22051Z   23071.20292975  .00061025  00000-0  32567-2 0  9991,2 52556  53.2178   0.8146 0002089 142.4759 217.6382 15.14587463 46396,6900.368,95.075,523.675,520.792,0.0
52556.0,STARLINK-3763,PAYLOAD,2023-03-13 04:37:30,15.14695991,0.0001911,53.2189,356.331,148.4091,211.7019,0.0024807,0.0004646,0.0,0 STARLINK-3763,1 52556U 22051Z   23072.19271894  .00046460  00000-0  24807-2 0  9991,2 52556  53.2189 356.3310 0001911 148.4091 211.7019 15.14695991 46543,6900.039,95.069,523.222,520.585,0.0
52556.0,STARLINK-3763,PAYLOAD,2023-03-13 22:02:40,15.1476487,0.000208,53.2194,353.0427,146.4486,213.6641,0.0024288,0.00045565,0.0,0 STARLINK-3763,1 52556U 22051Z   23072.91852355  .00045565  00000-0  24288-2 0  9996,2 52556  53.2194 353.0427 0002080 146.4486 213.6641 15.14764870 46585,6899.829,95.064,523.13,520.259,0.0
52556.0,STARLINK-3763,PAYLOAD,2023-03-14 04:22:43,15.14787324,0.0002232,53.2188,351.8469,149.2122,210.9004,0.0025406,0.00047721,0.0,0 STARLINK-3763,1 52556U 22051Z   23073.18244437  .00047721  00000-0  25406-2 0  9991,2 52556  53.2188 351.8469 0002232 149.2122 210.9004 15.14787324 46624,6899.761,95.063,523.166,520.086,0.0
52556.0,STARLINK-3763,PAYLOAD,2023-03-14 21:47:48,15.14856317,0.0002103,53.2186,348.5588,152.6485,207.4621,0.002653,0.00049959,0.0,0 STARLINK-3763,1 52556U 22051Z   23073.90820526  .00049959  00000-0  26530-2 0  9994,2 52556  53.2186 348.5588 0002103 152.6485 207.4621 15.14856317 46731,6899.552,95.059,522.868,519.966,0.0
52556.0,STARLINK-3763,PAYLOAD,2023-03-15 04:07:50,15.14883766,0.0001914,53.2187,347.3637,149.508,210.6026,0.0027591,0.00052024,0.0,0 STARLINK-3763,1 52556U 22051Z   23074.17211020  .00052024  00000-0  27591-2 0  9992,2 52556  53.2187 347.3637 0001914 149.5080 210.6026 15.14883766 46844,6899.468,95.057,522.654,520.013,0.0
52556.0,STARLINK-3763,PAYLOAD,2023-03-15 21:32:51,15.14964281,0.0001931,53.2192,344.0753,153.0955,207.0141,0.0026002,0.00049103,0.0,0 STARLINK-3763,1 52556U 22051Z   23074.89781830  .00049103  00000-0  26002-2 0  9992,2 52556  53.2192 344.0753 0001931 153.0955 207.0141 15.14964281 46887,6899.224,95.052,522.421,519.757,0.0
52556.0,STARLINK-3763,PAYLOAD,2023-03-16 05:27:50,15.15010227,0.0001973,53.2188,342.5808,156.662,203.4465,0.0029576,0.00056021,0.0,0 STARLINK-3763,1 52556U 22051Z   23075.22767222  .00056021  00000-0  29576-2 0  9995,2 52556  53.2188 342.5808 0001973 156.6620 203.4465 15.15010227 47007,6899.085,95.049,522.311,519.588,0.0
52556.0,STARLINK-3763,PAYLOAD,2023-03-16 21:17:47,15.15061915,0.0001913,53.2187,339.5916,160.3332,199.7737,0.0019116,0.00036052,0.0,0 STARLINK-3763,1 52556U 22051Z   23075.88736029  .00036052  00000-0  19116-2 0  9999,2 52556  53.2187 339.5916 0001913 160.3332 199.7737 15.15061915 47030,6898.928,95.046,522.112,519.473,0.0
52556.0,STARLINK-3763,PAYLOAD,2023-03-16 22:52:47,15.15067328,0.0001929,53.2188,339.2925,161.0181,199.0886,0.001982,0.00037404,0.0,0 STARLINK-3763,1 52556U 22051Z   23075.95332771  .00037404  00000-0  19820-2 0  9997,2 52556  53.2188 339.2925 0001929 161.0181 199.0886 15.15067328 47116,6898.911,95.045,522.107,519.445,0.0
52556.0,STARLINK-3763,PAYLOAD,2023-03-17 09:57:44,15.15100801,0.0001919,53.2187,337.2,163.3077,196.7982,0.0018322,0.00034573,0.0,0 STARLINK-3763,1 52556U 22051Z   23076.41509432  .00034573  00000-0  18322-2 0  9999,2 52556  53.2187 337.2000 0001919 163.3077 196.7982 15.15100801 47110,6898.81,95.043,521.998,519.351,0.0
52556.0,STARLINK-3763,PAYLOAD,2023-03-17 21:02:39,15.15136254,0.0001922,53.2187,335.1065,165.4989,194.6062,0.0019658,0.00037167,0.0,0 STARLINK-3763,1 52556U 22051Z   23076.87685088  .00037167  00000-0  19658-2 0  9996,2 52556  53.2187 335.1065 0001922 165.4989 194.6062 15.15136254 47181,6898.702,95.041,521.893,519.241,0.0
52556.0,STARLINK-3763,PAYLOAD,2023-03-18 01:47:37,15.15150571,0.0001892,53.2187,334.2094,166.1766,193.9281,0.0019736,0.00037332,0.0,0 STARLINK-3763,1 52556U 22051Z   23077.07474341  .00037332  00000-0  19736-2 0  9998,2 52556  53.2187 334.2094 0001892 166.1766 193.9281 15.15150571 47284,6898.658,95.04,521.829,519.218,0.0
52556.0,STARLINK-3763,PAYLOAD,2023-03-18 22:22:27,15.15206063,0.0001851,53.2187,330.3224,170.2494,189.8537,0.0016699,0.00031565,0.0,0 STARLINK-3763,1 52556U 22051Z   23077.93225738  .00031565  00000-0  16699-2 0  9994,2 52556  53.2187 330.3224 0001851 170.2494 189.8537 15.15206063 47348,6898.49,95.037,521.632,519.078,0.0
52556.0,STARLINK-3763,PAYLOAD,2023-03-19 01:32:25,15.15214569,0.0001818,53.2186,329.7242,170.3745,189.7285,0.0016626,0.00031432,0.0,0 STARLINK-3763,1 52556U 22051Z   23078.06417986  .00031432  00000-0  16626-2 0  9990,2 52556  53.2186 329.7242 0001818 170.3745 189.7285 15.15214569 47431,6898.464,95.036,521.583,519.075,0.0
52556.0,STARLINK-3763,PAYLOAD,2023-03-19 09:27:20,15.15237245,0.0001821,53.2184,328.2291,172.5254,187.5769,0.0016324,0.00030873,0.0,0 STARLINK-3763,1 52556U 22051Z   23078.39398199  .00030873  00000-0  16324-2 0  9993,2 52556  53.2184 328.2291 0001821 172.5254 187.5769 15.15237245 47417,6898.395,95.035,521.517,519.004,0.0
52556.0,STARLINK-3763,PAYLOAD,2023-03-19 20:32:12,15.15268371,0.0001821,53.2181,326.1361,174.8406,185.2608,0.0016567,0.00031368,0.0,0 STARLINK-3763,1 52556U 22051Z   23078.85569711  .00031368  00000-0  16567-2 0  9993,2 52556  53.2181 326.1361 0001821 174.8406 185.2608 15.15268371 47481,6898.301,95.033,521.422,518.91,0.0
52556.0,STARLINK-3763,PAYLOAD,2023-03-20 09:12:02,15.15302333,0.000178,53.2175,323.7437,178.2014,181.8987,0.0016596,0.00031454,0.0,0 STARLINK-3763,1 52556U 22051Z   23079.38336072  .00031454  00000-0  16596-2 0  9992,2 52556  53.2175 323.7437 0001780 178.2014 181.8987 15.15302333 47634,6898.198,95.031,521.291,518.835,0.0
52556.0,STARLINK-3763,PAYLOAD,2023-03-21 01:01:48,15.15343332,0.0001761,53.217,320.7533,181.156,178.9431,0.0016889,0.00032055,0.0,0 STARLINK-3763,1 52556U 22051Z   23080.04292422  .00032055  00000-0  16889-2 0  9990,2 52556  53.2170 320.7533 0001761 181.1560 178.9431 15.15343332 47669,6898.073,95.028,521.153,518.724,0.0
52556.0,STARLINK-3763,PAYLOAD,2023-03-21 21:36:28,15.15395919,0.0001708,53.2163,316.8653,185.4218,174.6759,0.0015858,0.00030116,0.0,0 STARLINK-3763,1 52556U 22051Z   23080.90032936  .00030116  00000-0  15858-2 0  9998,2 52556  53.2163 316.8653 0001708 185.4218 174.6759 15.15395919 47864,6897.914,95.025,520.957,518.601,0.0
52556.0,STARLINK-3763,PAYLOAD,2023-03-22 21:21:02,15.1545566,0.0001623,53.2157,312.3783,190.8709,169.2251,0.0015892,0.00030233,0.0,0 STARLINK-3763,1 52556U 22051Z   23081.88960707  .00030233  00000-0  15892-2 0  9990,2 52556  53.2157 312.3783 0001623 190.8709 169.2251 15.15455660 47949,6897.733,95.021,520.717,518.478,0.0
52556.0,STARLINK-3763,PAYLOAD,2023-03-23 21:05:32,15.15521756,0.0001649,53.2148,307.8904,197.5086,162.5853,0.0021285,0.00040734,0.0,0 STARLINK-3763,1 52556U 22051Z   23082.87884614  .00040734  00000-0  21285-2 0  9992,2 52556  53.2148 307.8904 0001649 197.5086 162.5853 15.15521756 48162,6897.532,95.017,520.534,518.26,0.0
52556.0,STARLINK-3763,PAYLOAD,2023-03-23 22:40:30,15.15527954,0.0001633,53.2151,307.5908,196.0848,164.0095,0.0022081,0.00042285,0.0,0 STARLINK-3763,1 52556U 22051Z   23082.94479371  .00042285  00000-0  22081-2 0  9998,2 52556  53.2151 307.5908 0001633 196.0848 164.0095 15.15527954 48105,6897.513,95.016,520.505,518.252,0.0
